EUTELSAT QUANTUM        
1 49056U 21069B   25360.86572600  .00000148  00000+0  00000+0 0  9993
2 49056   0.0145  30.9761 0003633 253.2092 170.7797  1.00271496 16207
EUTELSAT KONNECT VHTS   
1 53765U 22110A   25360.36919837  .00000038  00000+0  00000+0 0  9993
2 53765   0.0580  98.5588 0002544 155.2379 336.9389  1.00265206  5098
EUTELSAT HOTBIRD 13F    
1 54048U 22134A   25358.97635066  .00000108  00000+0  00000+0 0  9995
2 54048   0.0545 289.4002 0002211  71.8170  97.0057  1.00270775 11630
EUTELSAT HOTBIRD 13G    
1 54225U 22146A   25358.01989183  .00000108  00000+0  00000+0 0  9992
2 54225   0.0535 227.8066 0001713 307.3490 297.8001  1.00268836  5716
EUTELSAT 10B            
1 54259U 22157A   25360.36364068  .00000091  00000+0  00000+0 0  9992
2 54259   0.0597  94.7662 0002240 293.3487 207.9237  1.00276364 11298
EUTELSAT 36D            
1 59346U 24059A   25360.93794510  .00000000  00000+0  00000+0 0  9999
2 59346   0.0196  28.2975 0000309 310.2493 130.6699  1.00263998  6426
